CCSDS_OMM_VERS = 2.0
CREATION_DATE  = 
ORIGINATOR     = 

OBJECT_NAME    = STARLINK-36772
OBJECT_ID      = 2026-026A
CENTER_NAME    = EARTH
REF_FRAME      = TEME
TIME_SYSTEM    = UTC
MEAN_ELEMENT_THEORY = SGP/SGP4

EPOCH          = 2026-03-03T12:00:00.998784
MEAN_MOTION    = 15.72295657
ECCENTRICITY   = .0001505
INCLINATION    = 97.2842
RA_OF_ASC_NODE = 116.8549
ARG_OF_PERICENTER = 71.7577
MEAN_ANOMALY   = 349.9455

EPHEMERIS_TYPE = 0
CLASSIFICATION_TYPE = U
NORAD_CAT_ID   = 67721
ELEMENT_SET_NO = 999
REV_AT_EPOCH   = 431
BSTAR          = -.15948E-1
MEAN_MOTION_DOT = -.1837785E-1
MEAN_MOTION_DDOT = 0

CCSDS_OMM_VERS = 2.0
CREATION_DATE  = 
ORIGINATOR     = 

OBJECT_NAME    = STARLINK-36796
OBJECT_ID      = 2026-026B
CENTER_NAME    = EARTH
REF_FRAME      = TEME
TIME_SYSTEM    = UTC
MEAN_ELEMENT_THEORY = SGP/SGP4

EPOCH          = 2026-03-03T12:00:00.998784
MEAN_MOTION    = 15.71425233
ECCENTRICITY   = .0001531
INCLINATION    = 97.2841
RA_OF_ASC_NODE = 116.8554
ARG_OF_PERICENTER = 76.8849
MEAN_ANOMALY   = 345.8699

EPHEMERIS_TYPE = 0
CLASSIFICATION_TYPE = U
NORAD_CAT_ID   = 67722
ELEMENT_SET_NO = 999
REV_AT_EPOCH   = 431
BSTAR          = -.16561E-1
MEAN_MOTION_DOT = -.1838979E-1
MEAN_MOTION_DDOT = 0

CCSDS_OMM_VERS = 2.0
CREATION_DATE  = 
ORIGINATOR     = 

OBJECT_NAME    = STARLINK-36369
OBJECT_ID      = 2026-026C
CENTER_NAME    = EARTH
REF_FRAME      = TEME
TIME_SYSTEM    = UTC
MEAN_ELEMENT_THEORY = SGP/SGP4

EPOCH          = 2026-03-03T12:00:00.998784
MEAN_MOTION    = 15.71828826
ECCENTRICITY   = .000158
INCLINATION    = 97.2839
RA_OF_ASC_NODE = 116.8593
ARG_OF_PERICENTER = 71.2652
MEAN_ANOMALY   = 0.4676

EPHEMERIS_TYPE = 0
CLASSIFICATION_TYPE = U
NORAD_CAT_ID   = 67723
ELEMENT_SET_NO = 999
REV_AT_EPOCH   = 431
BSTAR          = -.16301E-1
MEAN_MOTION_DOT = -.1841083E-1
MEAN_MOTION_DDOT = 0

CCSDS_OMM_VERS = 2.0
CREATION_DATE  = 
ORIGINATOR     = 

OBJECT_NAME    = STARLINK-36752
OBJECT_ID      = 2026-026D
CENTER_NAME    = EARTH
REF_FRAME      = TEME
TIME_SYSTEM    = UTC
MEAN_ELEMENT_THEORY = SGP/SGP4

EPOCH          = 2026-03-03T12:00:00.998784
MEAN_MOTION    = 15.73123117
ECCENTRICITY   = .0001631
INCLINATION    = 97.2839
RA_OF_ASC_NODE = 116.8668
ARG_OF_PERICENTER = 74.6897
MEAN_ANOMALY   = 13.8605

EPHEMERIS_TYPE = 0
CLASSIFICATION_TYPE = U
NORAD_CAT_ID   = 67724
ELEMENT_SET_NO = 999
REV_AT_EPOCH   = 431
BSTAR          = -.15458E-1
MEAN_MOTION_DOT = -.18447E-1
MEAN_MOTION_DDOT = 0

CCSDS_OMM_VERS = 2.0
CREATION_DATE  = 
ORIGINATOR     = 

OBJECT_NAME    = STARLINK-36754
OBJECT_ID      = 2026-026E
CENTER_NAME    = EARTH
REF_FRAME      = TEME
TIME_SYSTEM    = UTC
MEAN_ELEMENT_THEORY = SGP/SGP4

EPOCH          = 2026-03-03T12:00:00.998784
MEAN_MOTION    = 15.70535069
ECCENTRICITY   = .0001587
INCLINATION    = 97.2840
RA_OF_ASC_NODE = 116.8608
ARG_OF_PERICENTER = 72.8110
MEAN_ANOMALY   = 1.9919

EPHEMERIS_TYPE = 0
CLASSIFICATION_TYPE = U
NORAD_CAT_ID   = 67725
ELEMENT_SET_NO = 999
REV_AT_EPOCH   = 431
BSTAR          = -.1719E-1
MEAN_MOTION_DOT = -.1838592E-1
MEAN_MOTION_DDOT = 0

CCSDS_OMM_VERS = 2.0
CREATION_DATE  = 
ORIGINATOR     = 

OBJECT_NAME    = STARLINK-36755
OBJECT_ID      = 2026-026F
CENTER_NAME    = EARTH
REF_FRAME      = TEME
TIME_SYSTEM    = UTC
MEAN_ELEMENT_THEORY = SGP/SGP4

EPOCH          = 2026-03-03T12:00:00.998784
MEAN_MOTION    = 15.68084521
ECCENTRICITY   = .0001482
INCLINATION    = 97.2840
RA_OF_ASC_NODE = 116.8538
ARG_OF_PERICENTER = 75.0841
MEAN_ANOMALY   = 343.3795

EPHEMERIS_TYPE = 0
CLASSIFICATION_TYPE = U
NORAD_CAT_ID   = 67726
ELEMENT_SET_NO = 999
REV_AT_EPOCH   = 431
BSTAR          = -.18977E-1
MEAN_MOTION_DOT = -.1833819E-1
MEAN_MOTION_DDOT = 0

CCSDS_OMM_VERS = 2.0
CREATION_DATE  = 
ORIGINATOR     = 

OBJECT_NAME    = STARLINK-36741
OBJECT_ID      = 2026-026G
CENTER_NAME    = EARTH
REF_FRAME      = TEME
TIME_SYSTEM    = UTC
MEAN_ELEMENT_THEORY = SGP/SGP4

EPOCH          = 2026-03-03T12:00:00.998784
MEAN_MOTION    = 15.69209123
ECCENTRICITY   = .0001552
INCLINATION    = 97.2840
RA_OF_ASC_NODE = 116.8609
ARG_OF_PERICENTER = 73.9124
MEAN_ANOMALY   = 1.1601

EPHEMERIS_TYPE = 0
CLASSIFICATION_TYPE = U
NORAD_CAT_ID   = 67727
ELEMENT_SET_NO = 999
REV_AT_EPOCH   = 431
BSTAR          = -.18127E-1
MEAN_MOTION_DOT = -.1834892E-1
MEAN_MOTION_DDOT = 0

CCSDS_OMM_VERS = 2.0
CREATION_DATE  = 
ORIGINATOR     = 

OBJECT_NAME    = STARLINK-36757
OBJECT_ID      = 2026-026H
CENTER_NAME    = EARTH
REF_FRAME      = TEME
TIME_SYSTEM    = UTC
MEAN_ELEMENT_THEORY = SGP/SGP4

EPOCH          = 2026-03-03T12:00:00.998784
MEAN_MOTION    = 15.73687152
ECCENTRICITY   = .000164
INCLINATION    = 97.2839
RA_OF_ASC_NODE = 116.8783
ARG_OF_PERICENTER = 72.4571
MEAN_ANOMALY   = 45.1476

EPHEMERIS_TYPE = 0
CLASSIFICATION_TYPE = U
NORAD_CAT_ID   = 67728
ELEMENT_SET_NO = 999
REV_AT_EPOCH   = 431
BSTAR          = -.15136E-1
MEAN_MOTION_DOT = -.1849971E-1
MEAN_MOTION_DDOT = 0

CCSDS_OMM_VERS = 2.0
CREATION_DATE  = 
ORIGINATOR     = 

OBJECT_NAME    = STARLINK-36751
OBJECT_ID      = 2026-026J
CENTER_NAME    = EARTH
REF_FRAME      = TEME
TIME_SYSTEM    = UTC
MEAN_ELEMENT_THEORY = SGP/SGP4

EPOCH          = 2026-03-03T12:00:00.998784
MEAN_MOTION    = 15.74249628
ECCENTRICITY   = .0001753
INCLINATION    = 97.2842
RA_OF_ASC_NODE = 116.8855
ARG_OF_PERICENTER = 73.7419
MEAN_ANOMALY   = 61.2636

EPHEMERIS_TYPE = 0
CLASSIFICATION_TYPE = U
NORAD_CAT_ID   = 67729
ELEMENT_SET_NO = 999
REV_AT_EPOCH   = 431
BSTAR          = -.1474E-1
MEAN_MOTION_DOT = -.1846605E-1
MEAN_MOTION_DDOT = 0

CCSDS_OMM_VERS = 2.0
CREATION_DATE  = 
ORIGINATOR     = 

OBJECT_NAME    = STARLINK-36747
OBJECT_ID      = 2026-026K
CENTER_NAME    = EARTH
REF_FRAME      = TEME
TIME_SYSTEM    = UTC
MEAN_ELEMENT_THEORY = SGP/SGP4

EPOCH          = 2026-03-03T12:00:00.998784
MEAN_MOTION    = 15.74150912
ECCENTRICITY   = .0001719
INCLINATION    = 97.2836
RA_OF_ASC_NODE = 116.8820
ARG_OF_PERICENTER = 75.0210
MEAN_ANOMALY   = 50.8685

EPHEMERIS_TYPE = 0
CLASSIFICATION_TYPE = U
NORAD_CAT_ID   = 67730
ELEMENT_SET_NO = 999
REV_AT_EPOCH   = 431
BSTAR          = -.14814E-1
MEAN_MOTION_DOT = -.1847778E-1
MEAN_MOTION_DDOT = 0

CCSDS_OMM_VERS = 2.0
CREATION_DATE  = 
ORIGINATOR     = 

OBJECT_NAME    = STARLINK-36315
OBJECT_ID      = 2026-026L
CENTER_NAME    = EARTH
REF_FRAME      = TEME
TIME_SYSTEM    = UTC
MEAN_ELEMENT_THEORY = SGP/SGP4

EPOCH          = 2026-03-03T12:00:00.998784
MEAN_MOTION    = 15.74428845
ECCENTRICITY   = .0001668
INCLINATION    = 97.2840
RA_OF_ASC_NODE = 116.8883
ARG_OF_PERICENTER = 84.0623
MEAN_ANOMALY   = 57.3961

EPHEMERIS_TYPE = 0
CLASSIFICATION_TYPE = U
NORAD_CAT_ID   = 67731
ELEMENT_SET_NO = 999
REV_AT_EPOCH   = 431
BSTAR          = -.1466E-1
MEAN_MOTION_DOT = -.1850301E-1
MEAN_MOTION_DDOT = 0

CCSDS_OMM_VERS = 2.0
CREATION_DATE  = 
ORIGINATOR     = 

OBJECT_NAME    = STARLINK-36260
OBJECT_ID      = 2026-026M
CENTER_NAME    = EARTH
REF_FRAME      = TEME
TIME_SYSTEM    = UTC
MEAN_ELEMENT_THEORY = SGP/SGP4

EPOCH          = 2026-03-03T12:00:00.998784
MEAN_MOTION    = 15.74809565
ECCENTRICITY   = .0001737
INCLINATION    = 97.2840
RA_OF_ASC_NODE = 116.8920
ARG_OF_PERICENTER = 78.1400
MEAN_ANOMALY   = 72.0557

EPHEMERIS_TYPE = 0
CLASSIFICATION_TYPE = U
NORAD_CAT_ID   = 67732
ELEMENT_SET_NO = 999
REV_AT_EPOCH   = 431
BSTAR          = -.14428E-1
MEAN_MOTION_DOT = -.1851367E-1
MEAN_MOTION_DDOT = 0

